NAVSTAR 77 (USA 289)    
1 43873U 18109A   24285.26268417  .00000073  00000+0  00000+0 0  9999
2 43873  55.3433 116.4399 0031243 191.7876 168.0001  2.00560521 42750
